{
  "norad_id": 64667,
  "name": "STARLINK-34382",
  "history": [
    {
      "epoch": "2026-03-28T06:19:25.063392Z",
      "apogee_km": 476.12539014113463,
      "perigee_km": 474.2379861744157,
      "latitude_deg": -1.9743931904356445e-05,
      "longitude_deg": 120.52471660947357,
      "height_km": 475.96048851792875,
      "semi_major_axis_km": 6853.318688157775,
      "eccentricity": 0.0001377,
      "inclination_deg": 53.162,
      "raan_deg": 41.0656,
      "arg_perigee_deg": 82.7333,
      "mean_anomaly_deg": 277.3824,
      "mean_motion_rev_day": 15.3021118
    },
    {
      "epoch": "2026-03-29T04:16:09.528384Z",
      "apogee_km": 475.97095257485216,
      "perigee_km": 474.43717484479293,
      "latitude_deg": 4.228431008941127e-05,
      "longitude_deg": 146.18981457724934,
      "height_km": 476.25444315394424,
      "semi_major_axis_km": 6853.341063709822,
      "eccentricity": 0.0001119,
      "inclination_deg": 53.1619,
      "raan_deg": 36.8172,
      "arg_perigee_deg": 101.4222,
      "mean_anomaly_deg": 258.6905,
      "mean_motion_rev_day": 15.30203686
    },
    {
      "epoch": "2026-03-30T02:12:54.324288Z",
      "apogee_km": 476.12451224752203,
      "perigee_km": 474.3248194740663,
      "latitude_deg": -2.1212213104981005e-05,
      "longitude_deg": 171.85173717709915,
      "height_km": 475.8357186799994,
      "semi_major_axis_km": 6853.361665860793,
      "eccentricity": 0.0001313,
      "inclination_deg": 53.1632,
      "raan_deg": 32.5671,
      "arg_perigee_deg": 71.3735,
      "mean_anomaly_deg": 288.7408,
      "mean_motion_rev_day": 15.30196786
    },
    {
      "epoch": "2026-03-30T13:11:17.036736Z",
      "apogee_km": 475.99771823874744,
      "perigee_km": 474.44529546977446,
      "latitude_deg": 8.397947660690476e-06,
      "longitude_deg": 4.68608046563978,
      "height_km": 475.9154803607142,
      "semi_major_axis_km": 6853.358506854261,
      "eccentricity": 0.00011326,
      "inclination_deg": 53.1626,
      "raan_deg": 30.4467,
      "arg_perigee_deg": 74.7151,
      "mean_anomaly_deg": 285.3975,
      "mean_motion_rev_day": 15.30197844
    },
    {
      "epoch": "2026-03-30T19:27:29.887776Z",
      "apogee_km": 476.19050712411536,
      "perigee_km": 474.2042737510783,
      "latitude_deg": -1.1185156156012665e-05,
      "longitude_deg": -90.8375892801484,
      "height_km": 475.88946970640404,
      "semi_major_axis_km": 6853.334390437597,
      "eccentricity": 0.00014491,
      "inclination_deg": 53.1622,
      "raan_deg": 29.2341,
      "arg_perigee_deg": 78.0262,
      "mean_anomaly_deg": 282.0901,
      "mean_motion_rev_day": 15.30205921
    }
  ]
}